[{"OBJECT_NAME":"UMBRA-07","OBJECT_ID":"2023-174AT","EPOCH":"2026-03-09T17:14:20.565312","MEAN_MOTION":15.07174057,"ECCENTRICITY":0.00041314,"INCLINATION":97.3902,"RA_OF_ASC_NODE":128.3323,"ARG_OF_PERICENTER":75.5473,"MEAN_ANOMALY":284.6213,"EPHEMERIS_TYPE":0,"CLASSIFICATION_TYPE":"U","NORAD_CAT_ID":58297,"ELEMENT_SET_NO":999,"REV_AT_EPOCH":12842,"BSTAR":0.0008461425,"MEAN_MOTION_DOT":0.00012685,"MEAN_MOTION_DDOT":0},{"OBJECT_NAME":"STARLINK-35178","OBJECT_ID":"2025-207U","EPOCH":"2026-03-09T17:04:43.455648","MEAN_MOTION":15.0564559,"ECCENTRICITY":9.487e-5,"INCLINATION":97.6026,"RA_OF_ASC_NODE":138.6688,"ARG_OF_PERICENTER":99.8211,"MEAN_ANOMALY":260.3123,"EPHEMERIS_TYPE":0,"CLASSIFICATION_TYPE":"U","NORAD_CAT_ID":65610,"ELEMENT_SET_NO":999,"REV_AT_EPOCH":2826,"BSTAR":0.00032139249,"MEAN_MOTION_DOT":4.579e-5,"MEAN_MOTION_DDOT":0}]
