UMBRA-07                
1 58297U 23174AT  26068.71829358  .00012685  00000+0  84614-3 0  9990
2 58297  97.3902 128.3323 0004131  75.5473 284.6213 15.07174057128425
STARLINK-35178          
1 65610U 25207U   26068.71161406  .00004579  00000+0  32139-3 0  9997
2 65610  97.6026 138.6688 0000949  99.8211 260.3123 15.05645590 28267
